[{"OBJECT_NAME":"STARLINK-35907","OBJECT_ID":"2025-263P","EPOCH":"2026-03-09T03:31:12.129024","MEAN_MOTION":15.27597703,"ECCENTRICITY":4.097e-5,"INCLINATION":42.9992,"RA_OF_ASC_NODE":353.9595,"ARG_OF_PERICENTER":309.0303,"MEAN_ANOMALY":51.0512,"EPHEMERIS_TYPE":0,"CLASSIFICATION_TYPE":"U","NORAD_CAT_ID":66498,"ELEMENT_SET_NO":999,"REV_AT_EPOCH":1881,"BSTAR":0.0014046499,"MEAN_MOTION_DOT":0.00038614,"MEAN_MOTION_DDOT":0},{"OBJECT_NAME":"CZ-2D R\/B","OBJECT_ID":"2025-227B","EPOCH":"2026-03-09T22:11:26.043072","MEAN_MOTION":15.30393637,"ECCENTRICITY":0.00198129,"INCLINATION":80.1514,"RA_OF_ASC_NODE":267.3771,"ARG_OF_PERICENTER":270.3655,"MEAN_ANOMALY":89.5307,"EPHEMERIS_TYPE":0,"CLASSIFICATION_TYPE":"U","NORAD_CAT_ID":65946,"ELEMENT_SET_NO":999,"REV_AT_EPOCH":2254,"BSTAR":0.00032251975,"MEAN_MOTION_DOT":9.557e-5,"MEAN_MOTION_DDOT":0}]
